2022-023F               
1 51951U 22023F   26156.61571186  .00016965  00000+0  67145-3 0  9997
2 51951  63.4460 312.8176 0128936 343.1404  16.5440 15.18178709235953
MERIDIAN 10             
1 52145U 22030A   26157.50251558  .00000233  00000+0  00000+0 0  9992
2 52145  62.6782 141.9394 6780806 272.8632  17.6770  2.00614902 30810
OMNI-L1                 
1 52157U 22033A   26157.44884734  .00002514  00000+0  31791-3 0  9998
2 52157  97.8389 236.8351 0004287 333.8855  26.2142 14.82709966225862
ENMAP                   
1 52159U 22033C   26157.85404808  .00000137  00000+0  27855-4 0  9991
2 52159  97.9790 240.2499 0001391  80.2400 279.8966 14.74977835225138
ARCSAT-1                
1 52161U 22033E   26157.49730442  .00017349  00000+0  27595-3 0  9993
2 52161  97.2747 249.6136 0003913 221.4280 138.6677 15.53357717234044
GLOBAL-18               
1 52196U 22034B   26157.58874670  .00026573  00000+0  54618-3 0  9999
2 52196  52.9829 307.2751 0003473 221.6043 138.4698 15.45816795235325
GAOFEN-3 03             
1 52200U 22035A   26157.89234183  .00000008  00000+0  15562-4 0  9990
2 52200  98.4064 166.6223 0001081  94.2354 265.8959 14.42213641219368
DAQI-1                  
1 52257U 22039A   26157.84890211  .00000311  00000+0  78145-4 0  9994
2 52257  98.1485  96.9150 0002504 304.2936  55.8026 14.57671264220436
BRO-6                   
1 52422U 22047AE  26157.68059685  .00042858  00000+0  76747-3 0  9998
2 52422  97.3395 248.5400 0005733 111.8638 248.3224 15.49832572229523
JILIN-1 GAOFEN 3D27     
1 52444U 22048B   26157.72999372  .00135745  00000+0  98452-3 0  9999
2 52444  97.5701 270.7386 0002429  95.1568 264.9972 15.72998954227834
JILIN-1 GAOFEN 3D28     
1 52445U 22048C   26157.81175833  .00138459  00000+0  89440-3 0  9990
2 52445  97.5641 270.9382 0001712 146.4383 213.6990 15.75693262227899
VIGORIDE-3              
1 52760U 22057AE  26157.66794571  .00007166  00000+0  27165-3 0  9995
2 52760  97.6598 297.3659 0008967 153.0993 207.0712 15.27169220223558
ION SCV-006             
1 52761U 22057AF  26157.80343301  .00014586  00000+0  30899-3 0  9995
2 52761  97.6094 305.9306 0018098 148.8617 211.3708 15.45031938224510
SHERPA-AC1              
1 52763U 22057AH  26156.86313200  .00009397  00000+0  26931-3 0  9993
2 52763  97.6679 305.6196 0008753 127.7405 232.4633 15.36102557223968
OMNI-L2                 
1 52771U 22057AR  26157.17987710  .00001693  00000+0  22276-3 0  9999
2 52771  97.4719 220.2779 0006792  14.7141 345.4270 14.81342137218765
STEP CUBE LAB-II        
1 52897U 22065D   26157.81061772  .00001033  00000+0  20954-3 0  9998
2 52897  98.2222 301.7451 0009842  61.3829 298.8362 14.63287650209989
RANDEV                  
1 52898U 22065E   26157.81443523  .00001081  00000+0  21700-3 0  9990
2 52898  98.2207 302.0962 0009186  61.8317 298.3811 14.63674451209738
SNUGLITE-II             
1 52899U 22065F   26157.64475319  .00001132  00000+0  22358-3 0  9997
2 52899  98.2192 302.4950 0008561  62.6309 297.5763 14.64328514209452
MIMAN                   
1 52900U 22065G   26157.64425662  .00000661  00000+0  14180-3 0  9996
2 52900  98.2249 300.1806 0008751  64.2228 295.9875 14.61832830208905
STARLINK-4362           
1 53043U 22077A   26157.76520359 -.00000470  00000+0 -28547-4 0  9993
2 53043  97.3978 337.1764 0002176  93.1111 267.0366 15.05654751214313
LARES-2                 
1 53105U 22080A   26154.55208436 -.00000012  00000+0  00000+0 0  9999
2 53105  70.1655 310.0052 0005379 337.8766  22.1504  6.38965171 90790
GREENCUBE (IO-117)      
1 53109U 22080E   26152.46502029 -.00000003  00000+0  00000+0 0  9996
2 53109  70.1435 303.7143 0008869 293.3663  66.6064  6.42583280 91055
STARLINK-4410           
1 53204U 22084R   26157.83335647  .00016367  00000+0  61886-3 0  9994
2 53204  97.5998 218.7061 0001399  86.4249  66.5148 15.27046613  5744
COSMOS 2558             
1 53323U 22089A   26157.84806775  .00106785  00000+0  77443-3 0  9997
2 53323  97.2254 261.5077 0000701 182.9437 177.1823 15.73091381216205
TECMS                   
1 53346U 22090A   26157.83272784  .00004257  00000+0  19312-3 0  9992
2 53346  97.3137 226.2346 0002380 215.0474 145.0606 15.21336556213234
DONGPO 02               
1 53452U 22098J   26157.87614689  .00104186  00000+0  77106-3 0  9993
2 53452  97.5507 288.1889 0001200 321.6473  38.4704 15.72618419213171
DONGPO 01               
1 53453U 22098K   26157.85316105  .00104240  00000+0  83748-3 0  9994
2 53453  97.5577 288.7155 0001109 245.3240 114.7907 15.70655797213130
STARLINK-4400           
1 53468U 22099D   26157.61151522  .00001397  00000+0  10076-3 0  9998
2 53468  97.3932 277.1112 0000891 151.8297 208.2979 15.05655798209350
STARLINK-4621           
1 53676U 22105AE  26157.61430428 -.00000824  00000+0 -53070-4 0  9990
2 53676  97.3961  37.1248 0002145  76.9338 283.2129 15.05670794206613
SHERPA-LTC2             
1 53754U 22107BG  26157.57748867  .00009248  00000+0  46163-3 0  9994
2 53754  53.2342 265.2413 0395071 196.3222 162.4724 14.69574484200985
