OBJECT_NAME,OBJECT_ID,EPOCH,MEAN_MOTION,ECCENTRICITY,INCLINATION,RA_OF_ASC_NODE,ARG_OF_PERICENTER,MEAN_ANOMALY,EPHEMERIS_TYPE,CLASSIFICATION_TYPE,NORAD_CAT_ID,ELEMENT_SET_NO,REV_AT_EPOCH,BSTAR,MEAN_MOTION_DOT,MEAN_MOTION_DDOT
2022-023F,2022-023F,2026-06-05T14:46:37.504704,15.18178709,.01289363,63.4460,312.8176,343.1404,16.5440,0,U,51951,999,23595,.6714487E-3,.16965E-3,0
MERIDIAN 10,2022-030A,2026-06-06T12:03:37.346112,2.00614902,.6780806,62.6782,141.9394,272.8632,17.6770,0,U,52145,999,3081,0,.233E-5,0
OMNI-L1,2022-033A,2026-06-06T10:46:20.410176,14.82709966,.00042875,97.8389,236.8351,333.8855,26.2142,0,U,52157,999,22586,.31790665E-3,.2514E-4,0
ENMAP,2022-033C,2026-06-06T20:29:49.754112,14.74977835,.0001391,97.9790,240.2499,80.2400,279.8966,0,U,52159,999,22513,.27855E-4,.137E-5,0
ARCSAT-1,2022-033E,2026-06-06T11:56:07.101888,15.53357717,.00039133,97.2747,249.6136,221.4280,138.6677,0,U,52161,999,23404,.27594585E-3,.17349E-3,0
GLOBAL-18,2022-034B,2026-06-06T14:07:47.714880,15.45816795,.0003473,52.9829,307.2751,221.6043,138.4698,0,U,52196,999,23532,.54618E-3,.26573E-3,0
GAOFEN-3 03,2022-035A,2026-06-06T21:24:58.334112,14.42213641,.0001081,98.4064,166.6223,94.2354,265.8959,0,U,52200,999,21936,.15562E-4,.8E-7,0
DAQI-1,2022-039A,2026-06-06T20:22:25.142304,14.57671264,.0002504,98.1485,96.9150,304.2936,55.8026,0,U,52257,999,22043,.78145E-4,.311E-5,0
BRO-6,2022-047AE,2026-06-06T16:20:03.567840,15.49832572,.0005733,97.3395,248.5400,111.8638,248.3224,0,U,52422,999,22952,.76747E-3,.42858E-3,0
JILIN-1 GAOFEN 3D27,2022-048B,2026-06-06T17:31:11.457408,15.72998954,.0002429,97.5701,270.7386,95.1568,264.9972,0,U,52444,999,22783,.98452E-3,.135745E-2,0
JILIN-1 GAOFEN 3D28,2022-048C,2026-06-06T19:28:55.919712,15.75693262,.0001712,97.5641,270.9382,146.4383,213.6990,0,U,52445,999,22789,.8944E-3,.138459E-2,0
VIGORIDE-3,2022-057AE,2026-06-06T16:01:50.509344,15.27169220,.0008967,97.6598,297.3659,153.0993,207.0712,0,U,52760,999,22355,.27165E-3,.7166E-4,0
ION SCV-006,2022-057AF,2026-06-06T19:16:56.612064,15.45031938,.0018098,97.6094,305.9306,148.8617,211.3708,0,U,52761,999,22451,.30899E-3,.14586E-3,0
SHERPA-AC1,2022-057AH,2026-06-05T20:42:54.604800,15.36102557,.00087539,97.6679,305.6196,127.7405,232.4633,0,U,52763,999,22396,.26930618E-3,.9397E-4,0
OMNI-L2,2022-057AR,2026-06-06T04:19:01.381440,14.81342137,.00067928,97.4719,220.2779,14.7141,345.4270,0,U,52771,999,21876,.222763E-3,.1693E-4,0
STEP CUBE LAB-II,2022-065D,2026-06-06T19:27:17.371008,14.63287650,.0009842,98.2222,301.7451,61.3829,298.8362,0,U,52897,999,20998,.20954E-3,.1033E-4,0
RANDEV,2022-065E,2026-06-06T19:32:47.203872,14.63674451,.0009186,98.2207,302.0962,61.8317,298.3811,0,U,52898,999,20973,.217E-3,.1081E-4,0
SNUGLITE-II,2022-065F,2026-06-06T15:28:26.675616,14.64328514,.0008561,98.2192,302.4950,62.6309,297.5763,0,U,52899,999,20945,.22358E-3,.1132E-4,0
MIMAN,2022-065G,2026-06-06T15:27:43.771968,14.61832830,.0008751,98.2249,300.1806,64.2228,295.9875,0,U,52900,999,20890,.1418E-3,.661E-5,0
STARLINK-4362,2022-077A,2026-06-06T18:21:53.590176,15.05654751,.0002176,97.3978,337.1764,93.1111,267.0366,0,U,53043,999,21431,-.28547E-4,-.47E-5,0
LARES-2,2022-080A,2026-06-03T13:15:00.088704,6.38965171,.00053798,70.1655,310.0052,337.8766,22.1504,0,U,53105,999,9079,0,-.12E-6,0
GREENCUBE (IO-117),2022-080E,2026-06-01T11:09:37.753056,6.42583280,.00088692,70.1435,303.7143,293.3663,66.6064,0,U,53109,999,9105,0,-.3E-7,0
STARLINK-4410,2022-084R,2026-06-06T20:00:01.999008,15.27046613,.0001399,97.5998,218.7061,86.4249,66.5148,0,U,53204,999,574,.61886E-3,.16367E-3,0
COSMOS 2558,2022-089A,2026-06-06T20:21:13.053600,15.73091381,.0000701,97.2254,261.5077,182.9437,177.1823,0,U,53323,999,21620,.77443E-3,.106785E-2,0
TECMS,2022-090A,2026-06-06T19:59:07.685376,15.21336556,.000238,97.3137,226.2346,215.0474,145.0606,0,U,53346,999,21323,.19312E-3,.4257E-4,0
DONGPO 02,2022-098J,2026-06-06T21:01:39.091296,15.72618419,.00012,97.5507,288.1889,321.6473,38.4704,0,U,53452,999,21317,.77106E-3,.104186E-2,0
DONGPO 01,2022-098K,2026-06-06T20:28:33.114720,15.70655797,.0001109,97.5577,288.7155,245.3240,114.7907,0,U,53453,999,21313,.83748E-3,.10424E-2,0
STARLINK-4400,2022-099D,2026-06-06T14:40:34.915008,15.05655798,.0000891,97.3932,277.1112,151.8297,208.2979,0,U,53468,999,20935,.10076E-3,.1397E-4,0
STARLINK-4621,2022-105AE,2026-06-06T14:44:35.889792,15.05670794,.0002145,97.3961,37.1248,76.9338,283.2129,0,U,53676,999,20661,-.5307E-4,-.824E-5,0
SHERPA-LTC2,2022-107BG,2026-06-06T13:51:35.021088,14.69574484,.0395071,53.2342,265.2413,196.3222,162.4724,0,U,53754,999,20098,.46163E-3,.9248E-4,0
